SENTINEL-6              
1 46984U 20086A   23281.57792829 -.00000053  00000+0  34250-4 0  9998
2 46984  66.0446  15.9411 0007863 267.9994  92.0121 12.80930020134479
